STARLINK-37168          
1 68766U 26086A   26117.56665599 -.00107237  62287-5 -28797-3 0  9991
2 68766  97.2809 152.9834 0002490 345.0782  15.0419 15.94230689  1183
