{
  "norad_id": 68766,
  "name": "STARLINK-37168",
  "history": [
    {
      "epoch": "2026-04-27T13:35:59.077536Z",
      "apogee_km": 292.11933243337353,
      "perigee_km": 288.79837169904386,
      "latitude_deg": -4.4203454488107925e-05,
      "longitude_deg": 93.43262554917916,
      "height_km": 292.04883853068645,
      "semi_major_axis_km": 6668.595852066209,
      "eccentricity": 0.000249,
      "inclination_deg": 97.2809,
      "raan_deg": 152.9834,
      "arg_perigee_deg": 345.0782,
      "mean_anomaly_deg": 15.0419,
      "mean_motion_rev_day": 15.94230689
    }
  ]
}